[{"OBJECT_NAME":"JILIN-1 GAOFEN 2D","OBJECT_ID":"2021-086A","EPOCH":"2026-03-09T21:43:54.183072","MEAN_MOTION":15.09714905,"ECCENTRICITY":0.00351294,"INCLINATION":97.632,"RA_OF_ASC_NODE":191.8747,"ARG_OF_PERICENTER":123.7982,"MEAN_ANOMALY":236.66,"EPHEMERIS_TYPE":0,"CLASSIFICATION_TYPE":"U","NORAD_CAT_ID":49256,"ELEMENT_SET_NO":999,"REV_AT_EPOCH":24573,"BSTAR":0.00040994132,"MEAN_MOTION_DOT":6.64e-5,"MEAN_MOTION_DDOT":0},{"OBJECT_NAME":"STARLINK-3812","OBJECT_ID":"2022-045R","EPOCH":"2026-03-09T15:24:32.946336","MEAN_MOTION":15.08835897,"ECCENTRICITY":0.00013,"INCLINATION":53.2167,"RA_OF_ASC_NODE":199.3431,"ARG_OF_PERICENTER":114.3782,"MEAN_ANOMALY":245.7345,"EPHEMERIS_TYPE":0,"CLASSIFICATION_TYPE":"U","NORAD_CAT_ID":52346,"ELEMENT_SET_NO":999,"REV_AT_EPOCH":21577,"BSTAR":1.3789e-5,"MEAN_MOTION_DOT":-6.8e-7,"MEAN_MOTION_DDOT":0}]
